{"type": "FeatureCollection", "features": [ {"type": "Feature", "properties": {"norad_id": 38552, "name": "METEOSAT-10 (MSG-3)", "group": "weather", "lat": 1.5003621526415793, "lon": -139.47584374819442, "alt_km": 35784.13729514647, "timestamp": "2025-12-04T09:47:37.165865+00:00", "meta": {"OBJECT_NAME": "METEOSAT-10 (MSG-3)", "OBJECT_ID": "2012-035B", "EPOCH": "2025-12-03T01:46:14.361312", "MEAN_MOTION": 1.00272334, "ECCENTRICITY": 7.5e-05, "INCLINATION": 4.2044, "RA_OF_ASC_NODE": 61.7366, "ARG_OF_PERICENTER": 219.9554, "MEAN_ANOMALY": 177.1386, "EPHEMERIS_TYPE": 0, "CLASSIFICATION_TYPE": "U", "NORAD_CAT_ID": 38552, "ELEMENT_SET_NO": 999, "REV_AT_EPOCH": 4889, "BSTAR": 0, "MEAN_MOTION_DOT": 1.1e-07, "MEAN_MOTION_DDOT": 0}, "tle": {"line1": "1 38552U 12035B   25337.07377733  .00000011  00000+0  00000+0 0  9991", "line2": "2 38552   4.2044  61.7366 0000750 219.9554 177.1386  1.00272334 48899"}}, "geometry": {"type": "Point", "coordinates": [-139.47584374819442, 1.5003621526415793]}}, {"type": "Feature", "properties": {"norad_id": 38771, "name": "METOP-B", "group": "weather", "lat": -41.2894839772882, "lon": 36.218492845423235, "alt_km": 828.7861052340395, "timestamp": "2025-12-04T09:47:37.165877+00:00", "meta": {"OBJECT_NAME": "METOP-B", "OBJECT_ID": "2012-049A", "EPOCH": "2025-12-03T23:51:13.778208", "MEAN_MOTION": 14.21403487, "ECCENTRICITY": 0.00025204, "INCLINATION": 98.6812, "RA_OF_ASC_NODE": 28.1005, "ARG_OF_PERICENTER": 163.9028, "MEAN_ANOMALY": 196.223, "EPHEMERIS_TYPE": 0, "CLASSIFICATION_TYPE": "U", "NORAD_CAT_ID": 38771, "ELEMENT_SET_NO": 999, "REV_AT_EPOCH": 68553, "BSTAR": 0.00016338265, "MEAN_MOTION_DOT": 3.13e-06, "MEAN_MOTION_DDOT": 0}, "tle": {"line1": "1 38771U 12049A   25337.99390947  .00000313  00000+0  16338-3 0  9992", "line2": "2 38771  98.6812  28.1005 0002520 163.9028 196.2230 14.21403487685530"}}, "geometry": {"type": "Point", "coordinates": [36.218492845423235, -41.2894839772882]}}, {"type": "Feature", "properties": {"norad_id": 39216, "name": "INSAT-3D", "group": "weather", "lat": -1.404325411696107, "lon": -10.089177875315334, "alt_km": 35788.35635000186, "timestamp": "2025-12-04T09:47:37.165889+00:00", "meta": {"OBJECT_NAME": "INSAT-3D", "OBJECT_ID": "2013-038B", "EPOCH": "2025-12-03T19:09:59.504832", "MEAN_MOTION": 1.00273601, "ECCENTRICITY": 0.00017622, "INCLINATION": 1.4199, "RA_OF_ASC_NODE": 85.093, "ARG_OF_PERICENTER": 155.0281, "MEAN_ANOMALY": 249.7797, "EPHEMERIS_TYPE": 0, "CLASSIFICATION_TYPE": "U", "NORAD_CAT_ID": 39216, "ELEMENT_SET_NO": 999, "REV_AT_EPOCH": 4512, "BSTAR": 0, "MEAN_MOTION_DOT": -3.22e-06, "MEAN_MOTION_DDOT": 0}, "tle": {"line1": "1 39216U 13038B   25337.79860538 -.00000322  00000+0  00000+0 0  9998", "line2": "2 39216   1.4199  85.0930 0001762 155.0281 249.7797  1.00273601 45127"}}, "geometry": {"type": "Point", "coordinates": [-10.089177875315334, -1.404325411696107]}}, {"type": "Feature", "properties": {"norad_id": 39260, "name": "FENGYUN 3C", "group": "weather", "lat": 16.217377558495098, "lon": -45.991004611677845, "alt_km": 849.6445344696613, "timestamp": "2025-12-04T09:47:37.165901+00:00", "meta": {"OBJECT_NAME": "FENGYUN 3C", "OBJECT_ID": "2013-052A", "EPOCH": "2025-12-04T04:37:39.008640", "MEAN_MOTION": 14.15692321, "ECCENTRICITY": 0.0013861, "INCLINATION": 98.4754, "RA_OF_ASC_NODE": 316.2899, "ARG_OF_PERICENTER": 221.708, "MEAN_ANOMALY": 138.3039, "EPHEMERIS_TYPE": 0, "CLASSIFICATION_TYPE": "U", "NORAD_CAT_ID": 39260, "ELEMENT_SET_NO": 999, "REV_AT_EPOCH": 63097, "BSTAR": 0.00014795, "MEAN_MOTION_DOT": 2.49e-06, "MEAN_MOTION_DDOT": 0}, "tle": {"line1": "1 39260U 13052A   25338.19281260  .00000249  00000+0  14795-3 0  9994", "line2": "2 39260  98.4754 316.2899 0013861 221.7080 138.3039 14.15692321630972"}}, "geometry": {"type": "Point", "coordinates": [-45.991004611677845, 16.217377558495098]}}, {"type": "Feature", "properties": {"norad_id": 40069, "name": "METEOR-M 2", "group": "weather", "lat": -7.338390321307642, "lon": 135.21029634033982, "alt_km": 822.3447032428958, "timestamp": "2025-12-04T09:47:37.165911+00:00", "meta": {"OBJECT_NAME": "METEOR-M 2", "OBJECT_ID": "2014-037A", "EPOCH": "2025-12-04T00:28:03.055584", "MEAN_MOTION": 14.21381341, "ECCENTRICITY": 0.00047131, "INCLINATION": 98.4893, "RA_OF_ASC_NODE": 315.9388, "ARG_OF_PERICENTER": 238.7315, "MEAN_ANOMALY": 121.3402, "EPHEMERIS_TYPE": 0, "CLASSIFICATION_TYPE": "U", "NORAD_CAT_ID": 40069, "ELEMENT_SET_NO": 999, "REV_AT_EPOCH": 59159, "BSTAR": 0.00015539723, "MEAN_MOTION_DOT": 2.97e-06, "MEAN_MOTION_DDOT": 0}, "tle": {"line1": "1 40069U 14037A   25338.01947981  .00000297  00000+0  15540-3 0  9999", "line2": "2 40069  98.4893 315.9388 0004713 238.7315 121.3402 14.21381341591593"}}, "geometry": {"type": "Point", "coordinates": [135.21029634033982, -7.338390321307642]}}, {"type": "Feature", "properties": {"norad_id": 40267, "name": "HIMAWARI-8", "group": "weather", "lat": -0.008332912753507626, "lon": 1.0570579081787876, "alt_km": 35785.30079676746, "timestamp": "2025-12-04T09:47:37.165923+00:00", "meta": {"OBJECT_NAME": "HIMAWARI-8", "OBJECT_ID": "2014-060A", "EPOCH": "2025-12-03T18:51:33.971040", "MEAN_MOTION": 1.00270422, "ECCENTRICITY": 0.00012657, "INCLINATION": 0.0059, "RA_OF_ASC_NODE": 94.3673, "ARG_OF_PERICENTER": 190.2827, "MEAN_ANOMALY": 211.7912, "EPHEMERIS_TYPE": 0, "CLASSIFICATION_TYPE": "U", "NORAD_CAT_ID": 40267, "ELEMENT_SET_NO": 999, "REV_AT_EPOCH": 4080, "BSTAR": 0, "MEAN_MOTION_DOT": -2.58e-06, "MEAN_MOTION_DDOT": 0}, "tle": {"line1": "1 40267U 14060A   25337.78580985 -.00000258  00000+0  00000+0 0  9994", "line2": "2 40267   0.0059  94.3673 0001265 190.2827 211.7912  1.00270422 40803"}}, "geometry": {"type": "Point", "coordinates": [1.0570579081787876, -0.008332912753507626]}}, {"type": "Feature", "properties": {"norad_id": 40367, "name": "FENGYUN 2G", "group": "weather", "lat": -4.6653237983489015, "lon": -39.98330681468244, "alt_km": 35779.76854388875, "timestamp": "2025-12-04T09:47:37.165935+00:00", "meta": {"OBJECT_NAME": "FENGYUN 2G", "OBJECT_ID": "2014-090A", "EPOCH": "2025-12-03T20:01:44.338080", "MEAN_MOTION": 1.00267283, "ECCENTRICITY": 0.00031126, "INCLINATION": 5.144, "RA_OF_ASC_NODE": 75.2006, "ARG_OF_PERICENTER": 193.8715, "MEAN_ANOMALY": 203.9913, "EPHEMERIS_TYPE": 0, "CLASSIFICATION_TYPE": "U", "NORAD_CAT_ID": 40367, "ELEMENT_SET_NO": 999, "REV_AT_EPOCH": 4004, "BSTAR": 0, "MEAN_MOTION_DOT": -2.88e-06, "MEAN_MOTION_DDOT": 0}, "tle": {"line1": "1 40367U 14090A   25337.83454095 -.00000288  00000+0  00000+0 0  9999", "line2": "2 40367   5.1440  75.2006 0003112 193.8715 203.9913  1.00267283 40041"}}, "geometry": {"type": "Point", "coordinates": [-39.98330681468244, -4.6653237983489015]}}, {"type": "Feature", "properties": {"norad_id": 40732, "name": "METEOSAT-11 (MSG-4)", "group": "weather", "lat": 0.9966494323590389, "lon": -130.11098283008158, "alt_km": 35783.16759035006, "timestamp": "2025-12-04T09:47:37.165949+00:00", "meta": {"OBJECT_NAME": "METEOSAT-11 (MSG-4)", "OBJECT_ID": "2015-034A", "EPOCH": "2025-12-03T13:48:01.944864", "MEAN_MOTION": 1.0027785, "ECCENTRICITY": 2.411e-05, "INCLINATION": 2.7126, "RA_OF_ASC_NODE": 72.0252, "ARG_OF_PERICENTER": 162.3254, "MEAN_ANOMALY": 54.7965, "EPHEMERIS_TYPE": 0, "CLASSIFICATION_TYPE": "U", "NORAD_CAT_ID": 40732, "ELEMENT_SET_NO": 999, "REV_AT_EPOCH": 525, "BSTAR": 0, "MEAN_MOTION_DOT": 8.1e-07, "MEAN_MOTION_DDOT": 0}, "tle": {"line1": "1 40732U 15034A   25337.57502251  .00000081  00000+0  00000+0 0  9993", "line2": "2 40732   2.7126  72.0252 0000241 162.3254  54.7965  1.00277850  5252"}}, "geometry": {"type": "Point", "coordinates": [-130.11098283008158, 0.9966494323590389]}}, {"type": "Feature", "properties": {"norad_id": 41105, "name": "ELEKTRO-L 2", "group": "weather", "lat": 4.5210349650685675, "lon": -154.02521895104175, "alt_km": 35778.77852098263, "timestamp": "2025-12-04T09:47:37.165961+00:00", "meta": {"OBJECT_NAME": "ELEKTRO-L 2", "OBJECT_ID": "2015-074A", "EPOCH": "2025-12-04T01:40:17.137056", "MEAN_MOTION": 1.00269777, "ECCENTRICITY": 0.000402, "INCLINATION": 6.2023, "RA_OF_ASC_NODE": 72.9293, "ARG_OF_PERICENTER": 197.7104, "MEAN_ANOMALY": 173.0548, "EPHEMERIS_TYPE": 0, "CLASSIFICATION_TYPE": "U", "NORAD_CAT_ID": 41105, "ELEMENT_SET_NO": 999, "REV_AT_EPOCH": 3655, "BSTAR": 0, "MEAN_MOTION_DOT": -1.05e-06, "MEAN_MOTION_DDOT": 0}, "tle": {"line1": "1 41105U 15074A   25338.06964279 -.00000105  00000+0  00000+0 0  9997", "line2": "2 41105   6.2023  72.9293 0004020 197.7104 173.0548  1.00269777 36559"}}, "geometry": {"type": "Point", "coordinates": [-154.02521895104175, 4.5210349650685675]}}, {"type": "Feature", "properties": {"norad_id": 41752, "name": "INSAT-3DR", "group": "weather", "lat": -0.044638677928718104, "lon": -65.53767918076429, "alt_km": 35731.258286191645, "timestamp": "2025-12-04T09:47:37.165973+00:00", "meta": {"OBJECT_NAME": "INSAT-3DR", "OBJECT_ID": "2016-054A", "EPOCH": "2025-12-04T01:57:38.699424", "MEAN_MOTION": 1.00269584, "ECCENTRICITY": 0.0014501, "INCLINATION": 0.0698, "RA_OF_ASC_NODE": 88.7967, "ARG_OF_PERICENTER": 180.3678, "MEAN_ANOMALY": 267.435, "EPHEMERIS_TYPE": 0, "CLASSIFICATION_TYPE": "U", "NORAD_CAT_ID": 41752, "ELEMENT_SET_NO": 999, "REV_AT_EPOCH": 3386, "BSTAR": 0, "MEAN_MOTION_DOT": -6.1e-07, "MEAN_MOTION_DDOT": 0}, "tle": {"line1": "1 41752U 16054A   25338.08169791 -.00000061  00000+0  00000+0 0  9993", "line2": "2 41752   0.0698  88.7967 0014501 180.3678 267.4350  1.00269584 33865"}}, "geometry": {"type": "Point", "coordinates": [-65.53767918076429, -0.044638677928718104]}}]}